STARLINK-31329          
1 59169U 24044T   26068.49755230 -.00001185  00000+0 -33549-4 0  9995
2 59169  43.0068 108.3313 0001714 285.7060  74.3603 15.27578170113532
2025-313BE              
1 67482U 25313BE  26068.69721505  .00077178  00000+0  26504-2 0  9996
2 67482  97.3989 145.3568 0007208 335.3714  24.7181 15.29801687  7972
